{
  "type": "FeatureCollection",
  "features": [
    {
      "type": "Feature",
      "properties": {
        "norad_id": 33605,
        "name": "FENGYUN 1C DEB",
        "group": "fengyun-1c-debris",
        "lat": -52.52197472895275,
        "lon": 2.7780765153116187,
        "alt_km": 889.373942528412,
        "timestamp": "2025-12-18T10:51:26.094350+00:00",
        "meta_object_name": "FENGYUN 1C DEB",
        "meta_object_id": "1999-025DCN",
        "meta_epoch": "2025-12-10T07:01:31.719072",
        "meta_mean_motion": 14.0776111,
        "meta_eccentricity": 0.0057186,
        "meta_inclination": 98.6977,
        "meta_ra_of_asc_node": 343.4026,
        "meta_arg_of_pericenter": 81.9564,
        "meta_mean_anomaly": 295.3635,
        "meta_ephemeris_type": 0,
        "meta_classification_type": "U",
        "meta_norad_cat_id": 33605,
        "meta_element_set_no": 999,
        "meta_rev_at_epoch": 59784,
        "meta_bstar": 0.00085517,
        "meta_mean_motion_dot": 1.428e-05,
        "meta_mean_motion_ddot": 0,
        "tle_line1": "1 33605U 99025DCN 25344.29272823  .00001428  00000+0  85517-3 0  9998",
        "tle_line2": "2 33605  98.6977 343.4026 0057186  81.9564 295.3635 14.07761110597841"
      },
      "geometry": {
        "type": "Point",
        "coordinates": [
          2.7780765153116187,
          -52.52197472895275
        ]
      }
    },
    {
      "type": "Feature",
      "properties": {
        "norad_id": 33612,
        "name": "FENGYUN 1C DEB",
        "group": "fengyun-1c-debris",
        "lat": -16.922316479961186,
        "lon": 138.72428691585003,
        "alt_km": 903.4316362147265,
        "timestamp": "2025-12-18T10:51:26.094360+00:00",
        "meta_object_name": "FENGYUN 1C DEB",
        "meta_object_id": "1999-025DCV",
        "meta_epoch": "2025-12-13T20:28:43.869792",
        "meta_mean_motion": 14.04084486,
        "meta_eccentricity": 0.01112826,
        "meta_inclination": 98.5972,
        "meta_ra_of_asc_node": 317.0094,
        "meta_arg_of_pericenter": 105.6891,
        "meta_mean_anomaly": 255.6586,
        "meta_ephemeris_type": 0,
        "meta_classification_type": "U",
        "meta_norad_cat_id": 33612,
        "meta_element_set_no": 999,
        "meta_rev_at_epoch": 56689,
        "meta_bstar": 0.0022025481,
        "meta_mean_motion_dot": 3.646e-05,
        "meta_mean_motion_ddot": 0,
        "tle_line1": "1 33612U 99025DCV 25347.85328553  .00003646  00000+0  22025-2 0  9991",
        "tle_line2": "2 33612  98.5972 317.0094 0111282 105.6891 255.6586 14.04084486566896"
      },
      "geometry": {
        "type": "Point",
        "coordinates": [
          138.72428691585003,
          -16.922316479961186
        ]
      }
    },
    {
      "type": "Feature",
      "properties": {
        "norad_id": 33613,
        "name": "FENGYUN 1C DEB",
        "group": "fengyun-1c-debris",
        "lat": -37.15495090385435,
        "lon": -122.47322180989181,
        "alt_km": 805.0364296417247,
        "timestamp": "2025-12-18T10:51:26.094371+00:00",
        "meta_object_name": "FENGYUN 1C DEB",
        "meta_object_id": "1999-025DCW",
        "meta_epoch": "2025-12-16T22:39:46.027872",
        "meta_mean_motion": 14.33243029,
        "meta_eccentricity": 0.00302029,
        "meta_inclination": 98.6973,
        "meta_ra_of_asc_node": 62.6736,
        "meta_arg_of_pericenter": 76.3387,
        "meta_mean_anomaly": 284.1157,
        "meta_ephemeris_type": 0,
        "meta_classification_type": "U",
        "meta_norad_cat_id": 33613,
        "meta_element_set_no": 999,
        "meta_rev_at_epoch": 64570,
        "meta_bstar": 0.001526734,
        "meta_mean_motion_dot": 4.177e-05,
        "meta_mean_motion_ddot": 0,
        "tle_line1": "1 33613U 99025DCW 25350.94428273  .00004177  00000+0  15267-2 0  9996",
        "tle_line2": "2 33613  98.6973  62.6736 0030202  76.3387 284.1157 14.33243029645702"
      },
      "geometry": {
        "type": "Point",
        "coordinates": [
          -122.47322180989181,
          -37.15495090385435
        ]
      }
    },
    {
      "type": "Feature",
      "properties": {
        "norad_id": 33618,
        "name": "FENGYUN 1C DEB",
        "group": "fengyun-1c-debris",
        "lat": -21.89283153953346,
        "lon": 83.43361814142732,
        "alt_km": 786.1436787889497,
        "timestamp": "2025-12-18T10:51:26.094381+00:00",
        "meta_object_name": "FENGYUN 1C DEB",
        "meta_object_id": "1999-025DDB",
        "meta_epoch": "2025-12-17T16:53:40.440192",
        "meta_mean_motion": 14.62178886,
        "meta_eccentricity": 0.01650752,
        "meta_inclination": 98.5312,
        "meta_ra_of_asc_node": 79.2025,
        "meta_arg_of_pericenter": 125.1015,
        "meta_mean_anomaly": 236.5788,
        "meta_ephemeris_type": 0,
        "meta_classification_type": "U",
        "meta_norad_cat_id": 33618,
        "meta_element_set_no": 999,
        "meta_rev_at_epoch": 96856,
        "meta_bstar": 0.00062907372,
        "meta_mean_motion_dot": 3.793e-05,
        "meta_mean_motion_ddot": 0,
        "tle_line1": "1 33618U 99025DDB 25351.70394028  .00003793  00000+0  62907-3 0  9993",
        "tle_line2": "2 33618  98.5312  79.2025 0165075 125.1015 236.5788 14.62178886968569"
      },
      "geometry": {
        "type": "Point",
        "coordinates": [
          83.43361814142732,
          -21.89283153953346
        ]
      }
    },
    {
      "type": "Feature",
      "properties": {
        "norad_id": 33619,
        "name": "FENGYUN 1C DEB",
        "group": "fengyun-1c-debris",
        "lat": 20.21960494774248,
        "lon": 58.54166853841982,
        "alt_km": 797.6727361344983,
        "timestamp": "2025-12-18T10:51:26.094391+00:00",
        "meta_object_name": "FENGYUN 1C DEB",
        "meta_object_id": "1999-025DDC",
        "meta_epoch": "2025-12-17T11:02:44.017152",
        "meta_mean_motion": 14.17531314,
        "meta_eccentricity": 0.00505218,
        "meta_inclination": 98.8624,
        "meta_ra_of_asc_node": 60.8467,
        "meta_arg_of_pericenter": 32.5457,
        "meta_mean_anomaly": 327.8816,
        "meta_ephemeris_type": 0,
        "meta_classification_type": "U",
        "meta_norad_cat_id": 33619,
        "meta_element_set_no": 999,
        "meta_rev_at_epoch": 63691,
        "meta_bstar": 0.0010023854,
        "meta_mean_motion_dot": 2.016e-05,
        "meta_mean_motion_ddot": 0,
        "tle_line1": "1 33619U 99025DDC 25351.46023168  .00002016  00000+0  10024-2 0  9990",
        "tle_line2": "2 33619  98.8624  60.8467 0050521  32.5457 327.8816 14.17531314636911"
      },
      "geometry": {
        "type": "Point",
        "coordinates": [
          58.54166853841982,
          20.21960494774248
        ]
      }
    },
    {
      "type": "Feature",
      "properties": {
        "norad_id": 33621,
        "name": "FENGYUN 1C DEB",
        "group": "fengyun-1c-debris",
        "lat": -28.295326972190068,
        "lon": -152.82770753478476,
        "alt_km": 707.7610778407925,
        "timestamp": "2025-12-18T10:51:26.094401+00:00",
        "meta_object_name": "FENGYUN 1C DEB",
        "meta_object_id": "1999-025DDE",
        "meta_epoch": "2025-12-10T20:17:14.702784",
        "meta_mean_motion": 14.19482835,
        "meta_eccentricity": 0.02846988,
        "meta_inclination": 98.1391,
        "meta_ra_of_asc_node": 195.7496,
        "meta_arg_of_pericenter": 300.0128,
        "meta_mean_anomaly": 57.3079,
        "meta_ephemeris_type": 0,
        "meta_classification_type": "U",
        "meta_norad_cat_id": 33621,
        "meta_element_set_no": 999,
        "meta_rev_at_epoch": 64217,
        "meta_bstar": 0.00099524636,
        "meta_mean_motion_dot": 3.099e-05,
        "meta_mean_motion_ddot": 0,
        "tle_line1": "1 33621U 99025DDE 25344.84530906  .00003099  00000+0  99525-3 0  9996",
        "tle_line2": "2 33621  98.1391 195.7496 0284698 300.0128  57.3079 14.19482835642176"
      },
      "geometry": {
        "type": "Point",
        "coordinates": [
          -152.82770753478476,
          -28.295326972190068
        ]
      }
    },
    {
      "type": "Feature",
      "properties": {
        "norad_id": 33625,
        "name": "FENGYUN 1C DEB",
        "group": "fengyun-1c-debris",
        "lat": -18.085000302590164,
        "lon": 106.18743034176856,
        "alt_km": 807.2520126830523,
        "timestamp": "2025-12-18T10:51:26.094412+00:00",
        "meta_object_name": "FENGYUN 1C DEB",
        "meta_object_id": "1999-025DDJ",
        "meta_epoch": "2025-12-17T18:30:25.862688",
        "meta_mean_motion": 14.61094935,
        "meta_eccentricity": 0.02257102,
        "meta_inclination": 98.6203,
        "meta_ra_of_asc_node": 102.638,
        "meta_arg_of_pericenter": 119.7403,
        "meta_mean_anomaly": 242.6462,
        "meta_ephemeris_type": 0,
        "meta_classification_type": "U",
        "meta_norad_cat_id": 33625,
        "meta_element_set_no": 999,
        "meta_rev_at_epoch": 61464,
        "meta_bstar": 0.00092873472,
        "meta_mean_motion_dot": 6.506e-05,
        "meta_mean_motion_ddot": 0,
        "tle_line1": "1 33625U 99025DDJ 25351.77113267  .00006506  00000+0  92873-3 0  9992",
        "tle_line2": "2 33625  98.6203 102.6380 0225710 119.7403 242.6462 14.61094935614640"
      },
      "geometry": {
        "type": "Point",
        "coordinates": [
          106.18743034176856,
          -18.085000302590164
        ]
      }
    }
  ]
}